{"n":40959,"c":9,"l1":"1 40959U 2015-057 26137.88345256  0.00000637  00000-0  962730-5 0  9996","l2":"2 40959  97.6615 134.1823 0017230  13.4957 346.6712 14.77346888570936","nm":"LINGQIAO VIDEO A"},{"n":40960,"c":9,"l1":"1 40960U 2015-057 26137.86230019  0.00000188  00000-0  330690-5 0  9991","l2":"2 40960  97.6582 135.3338 0017412  13.5935 346.5742 14.77450565570978","nm":"LINGQIAO VIDEO B"},{"n":40961,"c":9,"l1":"1 40961U 2015-057 26137.82159877  0.00000530  00000-0  799100-5 0  9996","l2":"2 40961  97.6510 138.6980 0017128   7.9835 352.1646 14.78105009571124","nm":"JILIN-1"},{"n":40967,"c":9,"l1":"1 40967U 2015-058 26136.95964132  0.00002238  00000-0  209080-4 0  9993","l2":"2 40967  64.7768  16.0156 0129128  68.8392 292.6463 14.90773374108910","nm":"FOX-1A (AO-85)"},{"n":40968,"c":9,"l1":"1 40968U 2015-058 26137.32323242  0.00003096  00000-0  255863-4 0  9990","l2":"2 40968  64.7761 355.5486 0117659  65.4694 295.8632 14.95649294112045","nm":"SINOD-D 1"},{"n":41105,"c":3,"l1":"1 41105U 2015-074 26137.16789829 -0.00000111  00000-0  00000-0 0  9994","l2":"2 41105   6.6158  70.8948 0001502 257.5246 312.3954  1.00271972 38191","nm":"ELEKTRO-L 2"},{"n":41173,"c":6,"l1":"1 41173U 2015-078 26137.83677112  0.00000922  00000-0  336590-5 0  9998","l2":"2 41173  97.4560 143.1562 0011873 175.1715 184.9643 15.30702443579902","nm":"DAMPE"},{"n":41179,"c":8,"l1":"1 41179U 2015-081 26137.70691828  0.00000143  00000-0  665930-5 0  9992","l2":"2 41179  47.0031 146.1069 0001503  33.6087 326.4894 14.58820429553307","nm":"ORBCOMM FM114"},{"n":41182,"c":8,"l1":"1 41182U 2015-081 26137.42166117  0.00000335  00000-0  107293-4 0  9998","l2":"2 41182  47.0003 146.9049 0004024 289.0366  71.0084 14.58826414553139","nm":"ORBCOMM FM110"},{"n":41184,"c":8,"l1":"1 41184U 2015-081 26137.80347809  0.00000312  00000-0  102180-4 0  9996","l2":"2 41184  47.0001  53.9155 0002514  56.3964 303.7161 14.58853509554514","nm":"ORBCOMM FM112"},{"n":41185,"c":8,"l1":"1 41185U 2015-081 26137.50532146  0.00000178  00000-0  739116-5 0  9990","l2":"2 41185  47.0015  55.6881 0001137  41.7679 318.3293 14.58820974554457","nm":"ORBCOMM FM113"},{"n":41187,"c":8,"l1":"1 41187U 2015-081 26137.81034345  0.00000328  00000-0  105760-4 0  9992","l2":"2 41187  47.0058 325.8131 0002029  56.3899 303.7180 14.58823916555647","nm":"ORBCOMM FM108"},{"n":41188,"c":8,"l1":"1 41188U 2015-081 26137.77579597  0.00000307  00000-0  101300-4 0  9994","l2":"2 41188  47.0022 324.6195 0002476  64.4683 295.6458 14.58821585555684","nm":"ORBCOMM FM117"},{"n":41189,"c":8,"l1":"1 41189U 2015-081 26137.48252277  0.00000270  00000-0  933188-5 0  9993","l2":"2 41189  47.0026  55.7937 0002252 290.3680  69.6964 14.58830479554451","nm":"ORBCOMM FM116"},{"n":41340,"c":9,"l1":"1 41340U 2016-012 26137.79861698  0.00139695  00000-0  729010-4 0  9994","l2":"2 41340  30.9884 299.0907 0004802  67.1367 292.9797 15.79340876565984","nm":"HORYU-4"},{"n":41556,"c":9,"l1":"1 41556U 2016-033 26137.86811858  0.00003790  00000-0  171220-4 0  9997","l2":"2 41556  97.3840 214.2229 0013400  47.2236 313.0125 15.21483604553370","nm":"ZIYUAN 3-02 (ZY 3-02)"},{"n":41599,"c":9,"l1":"1 41599U 2016-040 26137.82912022  0.00002229  00000-0  109020-4 0  9998","l2":"2 41599  97.4504 198.2196 0008520 234.7010 125.3428 15.19225490549109","nm":"CARTOSAT-2C"},{"n":41603,"c":9,"l1":"1 41603U 2016-040 26137.83875306  0.00002275  00000-0  738140-5 0  9991","l2":"2 41603  97.1487 134.9881 0012056 119.4158 240.8290 15.32898676550166","nm":"LAPAN-A3"},{"n":41727,"c":9,"l1":"1 41727U 2016-049 26137.83511058 -0.00000087  00000-0 -131550-5 0  9991","l2":"2 41727  98.4015 146.0786 0000965  82.8070 277.3229 14.42210650514273","nm":"GAOFEN-3"},{"n":41847,"c":9,"l1":"1 41847U 2016-066 26137.62584002  0.00000624  00000-0  974420-5 0  9995","l2":"2 41847  98.3826 213.7085 0341288 222.1434 135.3056 14.44596752500388","nm":"CAS-2T & KS-1Q"},{"n":41857,"c":9,"l1":"1 41857U 2016-068 26137.85656748  0.00000287  00000-0  121470-4 0  9993","l2":"2 41857  98.5838 149.1448 0006462 116.6000 243.5847 14.32716794497480","nm":"YUNHAI-1 01"},{"n":41877,"c":9,"l1":"1 41877U 2016-074 26137.80636891  0.00000150  00000-0  884470-5 0  9990","l2":"2 41877  98.7535 211.5572 0002739 142.0566 218.0805 14.21606486489984","nm":"RESOURCESAT-2A"},{"n":41898,"c":9,"l1":"1 41898U 2016-081 26137.81840513  0.00000208  00000-0  538510-5 0  9995","l2":"2 41898  98.5361 137.1796 0021595  45.6331 314.6632 14.59922733500197","nm":"TANSAT"},{"n":41914,"c":9,"l1":"1 41914U 2017-002 26137.83431546  0.00009176  00000-0  226010-4 0  9993","l2":"2 41914  97.1951 145.3647 0003579 286.1213  73.9640 15.40793969517184","nm":"JILIN-1 03"},{"n":41948,"c":9,"l1":"1 41948U 2017-008 26137.86163427  0.00001081  00000-0  544900-5 0  9998","l2":"2 41948  97.4126 197.7285 0004377   3.8305 356.2962 15.19241581512970","nm":"CARTOSAT-2D"}