OBJECT_NAME,OBJECT_ID,EPOCH,MEAN_MOTION,ECCENTRICITY,INCLINATION,RA_OF_ASC_NODE,ARG_OF_PERICENTER,MEAN_ANOMALY,EPHEMERIS_TYPE,CLASSIFICATION_TYPE,NORAD_CAT_ID,ELEMENT_SET_NO,REV_AT_EPOCH,BSTAR,MEAN_MOTION_DOT,MEAN_MOTION_DDOT
LINGQIAO VIDEO A,2015-057B,2026-05-17T21:12:10.301184,14.77346888,.001723,97.6615,134.1823,13.4957,346.6712,0,U,40959,999,57093,.96273E-4,.637E-5,0
LINGQIAO VIDEO B,2015-057C,2026-05-17T20:41:42.736416,14.77450565,.0017412,97.6582,135.3338,13.5935,346.5742,0,U,40960,999,57097,.33069E-4,.188E-5,0
JILIN-1,2015-057D,2026-05-17T19:43:06.134592,14.78105009,.0017128,97.6510,138.6980,7.9835,352.1646,0,U,40961,999,57112,.7991E-4,.53E-5,0
FOX-1A (AO-85),2015-058D,2026-05-16T23:01:53.010912,14.90773374,.01291278,64.7768,16.0156,68.8392,292.6463,0,U,40967,999,10891,.20908009E-3,.2238E-4,0
SINOD-D 1,2015-058E,2026-05-17T07:45:27.281088,14.95649294,.01176591,64.7761,355.5486,65.4694,295.8632,0,U,40968,999,11204,.25586287E-3,.3096E-4,0
ELEKTRO-L 2,2015-074A,2026-05-17T04:01:46.412256,1.00271972,.00015023,6.6158,70.8948,257.5246,312.3954,0,U,41105,999,3819,0,-.111E-5,0
DAMPE,2015-078A,2026-05-17T20:04:57.025632,15.30702443,.0011873,97.4560,143.1562,175.1715,184.9643,0,U,41173,999,57990,.33659E-4,.922E-5,0
ORBCOMM FM114,2015-081A,2026-05-17T16:57:57.739392,14.58820429,.0001503,47.0031,146.1069,33.6087,326.4894,0,U,41179,999,55330,.66593E-4,.143E-5,0
ORBCOMM FM110,2015-081D,2026-05-17T10:07:11.525952,14.58826414,.0004024,47.0003,146.9049,289.0366,71.0084,0,U,41182,999,55313,.10729257E-3,.335E-5,0
ORBCOMM FM112,2015-081F,2026-05-17T19:17:00.507840,14.58853509,.0002514,47.0001,53.9155,56.3964,303.7161,0,U,41184,999,55451,.10218E-3,.312E-5,0
ORBCOMM FM113,2015-081G,2026-05-17T12:07:39.774144,14.58820974,.00011369,47.0015,55.6881,41.7679,318.3293,0,U,41185,999,55445,.73911633E-4,.178E-5,0
ORBCOMM FM108,2015-081J,2026-05-17T19:26:53.674944,14.58823916,.0002029,47.0058,325.8131,56.3899,303.7180,0,U,41187,999,55564,.10576E-3,.328E-5,0
ORBCOMM FM117,2015-081K,2026-05-17T18:37:08.772672,14.58821585,.0002476,47.0022,324.6195,64.4683,295.6458,0,U,41188,999,55568,.1013E-3,.307E-5,0
ORBCOMM FM116,2015-081L,2026-05-17T11:34:49.967328,14.58830479,.00022521,47.0026,55.7937,290.3680,69.6964,0,U,41189,999,55445,.93318758E-4,.27E-5,0
HORYU-4,2016-012D,2026-05-17T19:10:00.507072,15.79340876,.0004802,30.9884,299.0907,67.1367,292.9797,0,U,41340,999,56598,.72901E-3,.139695E-2,0
ZIYUAN 3-02 (ZY 3-02),2016-033A,2026-05-17T20:50:05.445312,15.21483604,.00134,97.3840,214.2229,47.2236,313.0125,0,U,41556,999,55337,.17122E-3,.379E-4,0
CARTOSAT-2C,2016-040A,2026-05-17T19:53:55.987008,15.19225490,.000852,97.4504,198.2196,234.7010,125.3428,0,U,41599,999,54910,.10902E-3,.2229E-4,0
LAPAN-A3,2016-040E,2026-05-17T20:07:48.264384,15.32898676,.0012056,97.1487,134.9881,119.4158,240.8290,0,U,41603,999,55016,.73814E-4,.2275E-4,0
GAOFEN-3,2016-049A,2026-05-17T20:02:33.554112,14.42210650,.0000965,98.4015,146.0786,82.8070,277.3229,0,U,41727,999,51427,-.13155E-4,-.87E-6,0
CAS-2T & KS-1Q,2016-066G,2026-05-17T15:01:12.578592,14.44596752,.0341288,98.3826,213.7085,222.1434,135.3056,0,U,41847,999,50038,.97442E-4,.624E-5,0
YUNHAI-1 01,2016-068A,2026-05-17T20:33:27.430272,14.32716794,.0006462,98.5838,149.1448,116.6000,243.5847,0,U,41857,999,49748,.12147E-3,.287E-5,0
RESOURCESAT-2A,2016-074A,2026-05-17T19:21:10.274688,14.21606486,.0002739,98.7535,211.5572,142.0566,218.0805,0,U,41877,999,48998,.88447E-4,.15E-5,0
TANSAT,2016-081A,2026-05-17T19:38:30.203232,14.59922733,.0021595,98.5361,137.1796,45.6331,314.6632,0,U,41898,999,50019,.53851E-4,.208E-5,0
JILIN-1 03,2017-002B,2026-05-17T20:01:24.856608,15.40793969,.0003579,97.1951,145.3647,286.1213,73.9640,0,U,41914,999,51718,.22601E-3,.9176E-4,0
CARTOSAT-2D,2017-008A,2026-05-17T20:40:45.201792,15.19241581,.0004377,97.4126,197.7285,3.8305,356.2962,0,U,41948,999,51297,.5449E-4,.1081E-4,0
